2022-118A               
1 53884U 22118A   22295.61872781  .00004313  00000+0  18527-3 0  9998
2 53884  97.5214 302.1643 0015814 157.8716 342.4839 15.23121316  4216
2022-118B               
1 53885U 22118B   22295.61004310  .00006002  00000+0  25142-3 0  9992
2 53885  97.5213 302.1842 0012861 163.6546 355.9245 15.23845940  4207
STARLINK-5028           
1 53886U 22119A   22295.58334491  .00038806  00000+0  27982-3 0  9997
2 53886  53.2151 116.3366 0000836  98.7381 352.4809 15.73184556  1308
STARLINK-5029           
1 53887U 22119B   22295.58334491 -.00005455  00000+0 -34421-4 0  9991
2 53887  53.2143 116.3319 0001123  81.4439  11.5431 15.73238820  1309
STARLINK-5034           
1 53888U 22119C   22295.58334491  .00024589  00000+0  17901-3 0  9992
2 53888  53.2152 116.3366 0001840  44.3568  47.4694 15.73212095  1304
STARLINK-5031           
1 53889U 22119D   22295.58334491  .00024070  00000+0  17537-3 0  9993
2 53889  53.2154 116.3374 0001408  64.7869  27.6211 15.73207725  1305
STARLINK-5050           
1 53890U 22119E   22295.58334491 -.00083179  00000+0 -59155-3 0  9994
2 53890  53.2199 114.8037 0002152  28.4844  94.7368 15.73297190  1305
STARLINK-5041           
1 53891U 22119F   22295.58334491  .00041033  00000+0  29558-3 0  9990
2 53891  53.2146 116.3312 0001289  84.6419   9.5467 15.73181709  1305
STARLINK-5046           
1 53892U 22119G   22295.58334491  .00033188  00000+0  23959-3 0  9992
2 53892  53.2162 116.3280 0002320  24.1613  72.9797 15.73233562  1305
STARLINK-5052           
1 53893U 22119H   22295.58334491 -.00018368  00000+0 -12660-3 0  9995
2 53893  53.2142 116.3252 0001238 133.9870 322.0272 15.73225348  1304
STARLINK-5043           
1 53894U 22119J   22295.58334491  .00002564  00000+0  22641-4 0  9996
2 53894  53.2145 116.3293 0001082  85.6174   9.1527 15.73244074  1303
STARLINK-5032           
1 53895U 22119K   22295.58334491 -.00000682  00000+0 -44381-6 0  9995
2 53895  53.2145 116.3258 0001015  82.1105  14.4808 15.73229921  1302
STARLINK-5037           
1 53896U 22119L   22295.58334491 -.00071204  00000+0 -50607-3 0  9999
2 53896  53.2154 116.3264 0002548  24.1667  73.6190 15.73247343  1300
STARLINK-5035           
1 53897U 22119M   22295.58334491  .00026532  00000+0  19284-3 0  9998
2 53897  53.2151 116.3292 0001345 128.2087 327.1923 15.73202773  1304
STARLINK-5044           
1 53898U 22119N   22295.58334491  .00023134  00000+0  16872-3 0  9994
2 53898  53.2151 116.3231 0001584  40.8258  58.7485 15.73210279  1302
STARLINK-5042           
1 53899U 22119P   22295.58334491 -.00033267  00000+0 -23307-3 0  9996
2 53899  53.2153 116.3248 0001602  49.3963  49.5742 15.73246339  1301
STARLINK-5045           
1 53900U 22119Q   22295.58334491  .00024662  00000+0  17954-3 0  9997
2 53900  53.2164 116.3195 0001602  31.1279  69.6273 15.73210073  1304
STARLINK-5024           
1 53901U 22119R   22295.58334491  .00025198  00000+0  18319-3 0  9999
2 53901  53.2152 116.3253 0001210  97.1129   1.2213 15.73228924  1308
STARLINK-5021           
1 53902U 22119S   22295.58334491  .00052542  00000+0  34194-3 0  9992
2 53902  53.2139 116.2000 0000550 335.5921 183.6347 15.75431514  1304
STARLINK-5022           
1 53903U 22119T   22295.58334491  .00000348  00000+0  68820-5 0  9995
2 53903  53.2153 116.3221 0000974  78.3464  21.7812 15.73249196  1301
STARLINK-4787           
1 53904U 22119U   22295.58334491  .00014521  00000+0  10761-3 0  9993
2 53904  53.2144 116.3132 0001061  73.3624  27.9714 15.73219017  1302
STARLINK-5003           
1 53905U 22119V   22295.58334491  .00000741  00000+0  96799-5 0  9990
2 53905  53.2146 116.3120 0001111  85.2243  17.8909 15.73245084  1304
STARLINK-5054           
1 53906U 22119W   22295.58334491  .00040956  00000+0  29502-3 0  9999
2 53906  53.2152 116.3109 0001995  26.6545  78.2509 15.73182364  1301
STARLINK-5063           
1 53907U 22119X   22295.58334491 -.00003540  00000+0 -20785-4 0  9995
2 53907  53.2153 116.3176 0001692  26.7983  75.1678 15.73228113  1304
STARLINK-5057           
1 53908U 22119Y   22295.58334491 -.00005360  00000+0 -33755-4 0  9999
2 53908  53.2154 116.3111 0000995  90.5425  14.9817 15.73228571  1304
STARLINK-4796           
1 53909U 22119Z   22295.58334491  .00027568  00000+0  20016-3 0  9997
2 53909  53.2146 116.3128 0001536  61.1458  41.3942 15.73204338  1304
STARLINK-5056           
1 53910U 22119AA  22295.58334491 -.00000749  00000+0 -92273-6 0  9990
2 53910  53.2147 116.3049 0000945  80.4616  26.8484 15.73239037  1305
STARLINK-5048           
1 53911U 22119AB  22295.58334491  .00002060  00000+0  19053-4 0  9990
2 53911  53.2149 116.3100 0000956  92.1862  12.1094 15.73240592  1304
STARLINK-5059           
1 53912U 22119AC  22295.58334491  .00015674  00000+0  11586-3 0  9998
2 53912  53.2155 116.3080 0001347  49.9877  56.7383 15.73205707  1304
STARLINK-5053           
1 53913U 22119AD  22295.58334491  .00044883  00000+0  32263-3 0  9998
2 53913  53.2153 116.3045 0000795  88.4507  20.0446 15.73190727  1307
STARLINK-5040           
1 53914U 22119AE  22295.58334491  .00003144  00000+0  26787-4 0  9999
2 53914  53.2155 116.3026 0001131  78.7880  30.3303 15.73220610  1301
STARLINK-5017           
1 53915U 22119AF  22295.58334491  .00010730  00000+0  80718-4 0  9993
2 53915  53.2154 116.3088 0001022  88.1783  17.9246 15.73215242  1307
STARLINK-5051           
1 53916U 22119AG  22295.58334491 -.00005903  00000+0 -37659-4 0  9998
2 53916  53.2211 116.2071 0001318 123.9810  36.0599 15.73208294  1302
STARLINK-5036           
1 53917U 22119AH  22295.58334491  .00039906  00000+0  28745-3 0  9992
2 53917  53.2156 116.3053 0001187  80.4282  27.4747 15.73196085  1309
STARLINK-5012           
1 53918U 22119AJ  22295.58334491  .00042284  00000+0  30464-3 0  9997
2 53918  53.2156 116.2999 0001222  88.4390  21.8665 15.73164374  1309
STARLINK-5023           
1 53919U 22119AK  22295.58334491 -.00017710  00000+0 -12205-3 0  9999
2 53919  53.2151 116.2983 0001244  70.9778  39.9418 15.73196751  1308
STARLINK-5025           
1 53920U 22119AL  22295.58334491  .00040578  00000+0  29229-3 0  9991
2 53920  53.2152 116.2951 0000862  74.3905  38.8713 15.73187950  4783
STARLINK-5005           
1 53921U 22119AM  22295.60666425  .00944646  11759-4  51077-3 0  9993
2 53921  53.2136 111.4925 0019457 151.8152 208.5642 16.18606219  4858
STARLINK-5002           
1 53922U 22119AN  22295.58334491  .00042843  00000+0  30826-3 0  9995
2 53922  53.2155 116.2941 0001319  90.6309  23.2194 15.73189383  4787
STARLINK-5004           
1 53923U 22119AP  22295.58334491 -.00074612  00000+0 -53055-3 0  9996
2 53923  53.2153 116.2972 0001328  75.0476  37.6085 15.73259918  1307
STARLINK-5001           
1 53924U 22119AQ  22295.58334491  .00026444  00000+0  19217-3 0  9997
2 53924  53.2154 116.2908 0001358  79.0974  36.5678 15.73208423  4784
STARLINK-5011           
1 53925U 22119AR  22295.58334491 -.00001743  00000+0 -79872-5 0  9990
2 53925  53.2159 116.3010 0001111  61.5709  49.8892 15.73242147  1305
STARLINK-5014           
1 53926U 22119AS  22295.58334491 -.00023801  00000+0 -16550-3 0  9992
2 53926  53.2154 116.2889 0000960  94.5368  21.6985 15.73221091  1308
STARLINK-5008           
1 53927U 22119AT  22295.58334491 -.00023833  00000+0 -16576-3 0  9996
2 53927  53.2153 116.2904 0001316  85.3935  29.6432 15.73215563  1302
STARLINK-5009           
1 53928U 22119AU  22295.58334491  .00009054  00000+0  68750-4 0  9996
2 53928  53.2152 116.2864 0000821  90.4100  26.4253 15.73236304  1300
STARLINK-5018           
1 53929U 22119AV  22295.58334491  .00026791  00000+0  19460-3 0  9997
2 53929  53.2147 116.2919 0001915  24.8111  89.6461 15.73210726  1306
STARLINK-5010           
1 53930U 22119AW  22295.58334491  .00026473  00000+0  19243-3 0  9995
2 53930  53.2159 116.2852 0001030  76.6666  41.3926 15.73201543  4788
STARLINK-5015           
1 53931U 22119AX  22295.58334491  .00002961  00000+0  25487-4 0  9990
2 53931  53.2146 116.2808 0001616  53.6554  65.5753 15.73224344  4787
STARLINK-4772           
1 53932U 22119AY  22295.58334491  .00000951  00000+0  11179-4 0  9991
2 53932  53.2155 116.2840 0001259  50.8892  67.7747 15.73234265  4781
STARLINK-4782           
1 53933U 22119AZ  22295.58334491 -.00059116  00000+0 -41888-3 0  9990
2 53933  53.2153 116.2839 0001023  89.9600  27.4502 15.73249095  1301
STARLINK-4775           
1 53934U 22119BA  22295.58334491  .00042993  00000+0  30935-3 0  9995
2 53934  53.2153 116.2789 0001047  71.2330  48.5993 15.73186680  4789
STARLINK-5000           
1 53935U 22119BB  22295.58334491  .00001220  00000+0  13091-4 0  9999
2 53935  53.2155 116.2804 0000975  88.1686  32.8604 15.73227605  4788
STARLINK-4791           
1 53936U 22119BC  22295.58334491  .00000178  00000+0  56816-5 0  9994
2 53936  53.2155 116.2789 0001146  85.2099  35.2397 15.73221711  4786
STARLINK-4765           
1 53937U 22119BD  22295.58334491  .00028098  00000+0  20386-3 0  9997
2 53937  53.2160 116.2766 0001830  44.2511  77.3607 15.73209576  4788
2022-118C               
1 53942U 22118C   22295.58201585  .00026867  23414-5  33133-3 0  9995
2 53942  97.5246 302.2891 0266715 267.2216  89.8458 15.28264101  4215
YAOGAN-36 01A           
1 53943U 22120A   22295.57545113  .00009376  00000+0  37902-3 0  9990
2 53943  34.9980  21.5584 0005584 167.2719 326.9367 15.23969864  3977
CZ-2D DEB               
1 53944U 22120B   22295.55759091  .00025050  00000+0  94440-3 0  9998
2 53944  34.9993  21.4199 0007536 136.6221 353.3791 15.26123794  3972
CZ-2D R/B               
1 53945U 22120C   22295.56325654  .00021501  00000+0  82111-3 0  9993
2 53945  34.9982  21.4653 0007633 131.8537 359.5244 15.25720794  3941
YAOGAN-36 01B           
1 53946U 22120D   22295.57684314 -.00043942  00000+0 -17929-2 0  9995
2 53946  34.9988  21.5629 0006724 130.5606   5.1113 15.23729547  3936
